OBJECT_NAME,OBJECT_ID,EPOCH,MEAN_MOTION,ECCENTRICITY,INCLINATION,RA_OF_ASC_NODE,ARG_OF_PERICENTER,MEAN_ANOMALY,EPHEMERIS_TYPE,CLASSIFICATION_TYPE,NORAD_CAT_ID,ELEMENT_SET_NO,REV_AT_EPOCH,BSTAR,MEAN_MOTION_DOT,MEAN_MOTION_DDOT
COSMOS 2507 (RODNIK-S 13),2015-050A,2026-07-09T06:54:16.948224,12.42927099,.00092087,82.4911,65.9087,307.5327,52.4915,0,U,40920,999,48960,-.53949191E-3,-.65E-6,0
COSMOS 2508 (RODNIK-S 14),2015-050B,2026-07-09T07:45:43.577856,12.42914593,.00142193,82.4864,64.3831,339.9626,20.0893,0,U,40921,999,48959,-.76904844E-3,-.97E-6,0
COSMOS 2509 (RODNIK-S 15),2015-050C,2026-07-09T06:19:52.896288,12.42884097,.00148815,82.4871,64.5249,357.1122,2.9870,0,U,40922,999,48962,-.76891227E-3,-.97E-6,0
LINGQIAO VIDEO A,2015-057B,2026-07-09T07:19:39.938304,14.77423173,.00161513,97.6634,184.0173,192.4132,167.6684,0,U,40959,999,57867,.1040913E-3,.694E-5,0
LINGQIAO VIDEO B,2015-057C,2026-07-09T06:43:47.470656,14.77528297,.00163076,97.6598,185.1513,192.5366,167.5442,0,U,40960,999,57871,.10960292E-3,.735E-5,0
JILIN-1,2015-057D,2026-07-09T06:49:00.909120,14.78195716,.00166734,97.6515,188.5545,186.0684,174.0329,0,U,40961,999,57887,.87292055E-4,.585E-5,0
FOX-1A (AO-85),2015-058D,2026-07-09T00:24:29.327904,14.91065127,.01318917,64.7733,211.1378,48.1465,313.0815,0,U,40967,999,11682,.15541655E-3,.1641E-4,0
SINOD-D 1,2015-058E,2026-07-09T00:07:33.964608,14.96049923,.01205641,64.7734,190.5790,44.5324,316.5402,0,U,40968,999,11992,.23988919E-3,.2945E-4,0
ELEKTRO-L 2,2015-074A,2026-07-08T10:12:33.980256,1.00273098,.00006934,6.7437,70.2631,230.4230,124.3160,0,U,41105,999,3871,0,-.107E-5,0
DAMPE,2015-078A,2026-07-09T06:17:49.061760,15.30844082,.00122469,97.4567,195.8388,6.7079,353.4323,0,U,41173,999,58792,.39939508E-4,.1114E-4,0
ORBCOMM FM110,2015-081D,2026-07-09T05:23:25.413216,14.58913742,.00032971,47.0014,257.2427,196.7550,163.3228,0,U,41182,999,56084,.10693737E-3,.335E-5,0
ORBCOMM FM112,2015-081F,2026-07-09T06:18:52.377408,14.58932538,.00039977,46.9976,165.8528,303.9343,56.1162,0,U,41184,999,56217,.13947043E-3,.489E-5,0
ORBCOMM FM113,2015-081G,2026-07-09T07:24:54.576864,14.58878238,.00024815,46.9992,166.0233,300.1453,59.9187,0,U,41185,999,56216,.86114332E-4,.236E-5,0
ORBCOMM FM108,2015-081J,2026-07-09T03:13:06.419712,14.58904401,.00029274,47.0051,78.4302,300.2625,59.7971,0,U,41187,999,56328,.12629991E-3,.426E-5,0
ORBCOMM FM117,2015-081K,2026-07-08T01:44:24.310176,14.58889920,.00034342,47.0014,82.0783,302.2374,57.8178,0,U,41188,999,56317,.12375711E-3,.414E-5,0
ORBCOMM FM116,2015-081L,2026-07-08T17:42:03.513888,14.58901693,.00013301,47.0009,168.7225,212.2170,147.8635,0,U,41189,999,56208,.63411418E-4,.129E-5,0
ZIYUAN 3-02 (ZY 3-02),2016-033A,2026-07-09T06:57:59.838624,15.21397268,.00134418,97.3828,265.6394,205.9322,154.1242,0,U,41556,999,56134,.17416875E-3,.3846E-4,0
CARTOSAT-2C,2016-040A,2026-07-09T07:44:45.686400,15.19233417,.00099259,97.4469,249.9952,62.7988,297.4257,0,U,41599,999,55707,.99586155E-4,.2032E-4,0
LAPAN-A3,2016-040E,2026-07-09T07:35:43.902240,15.33253630,.00083905,97.1499,185.7376,301.8479,58.1947,0,U,41603,999,55820,.76464804E-4,.2384E-4,0
GAOFEN-3,2016-049A,2026-07-09T06:50:17.419776,14.42218672,.00017604,98.4020,197.7374,90.0645,270.0746,0,U,41727,999,52183,.586399E-4,.15E-5,0
CAS-2T & KS-1Q,2016-066G,2026-07-09T03:01:32.902464,14.44761366,.03425416,98.3814,265.6112,63.1325,300.4448,0,U,41847,999,50796,.13108027E-3,.881E-5,0
YUNHAI-1 01,2016-068A,2026-07-09T07:22:40.858176,14.32719187,.0003595,98.5852,201.1076,5.7940,354.3285,0,U,41857,999,50499,.12902379E-3,.307E-5,0
RESOURCESAT-2A,2016-074A,2026-07-09T07:28:44.827680,14.21608361,.00027046,98.7517,263.6349,41.5087,318.6295,0,U,41877,999,49744,.90528776E-4,.154E-5,0
TANSAT,2016-081A,2026-07-09T07:36:16.050816,14.59969557,.00191758,98.5373,191.2293,239.4319,120.4988,0,U,41898,999,50785,.10893141E-3,.473E-5,0
